CCSDS_OMM_VERS = 2.0
CREATION_DATE  = 
ORIGINATOR     = 

OBJECT_NAME    = STARLINK-36575
OBJECT_ID      = 2026-016J
CENTER_NAME    = EARTH
REF_FRAME      = TEME
TIME_SYSTEM    = UTC
MEAN_ELEMENT_THEORY = SGP/SGP4

EPOCH          = 2026-02-06T12:00:01.999296
MEAN_MOTION    = 15.80767591
ECCENTRICITY   = .0001039
INCLINATION    = 97.2788
RA_OF_ASC_NODE = 96.3564
ARG_OF_PERICENTER = 91.3244
MEAN_ANOMALY   = 50.9444

EPHEMERIS_TYPE = 0
CLASSIFICATION_TYPE = U
NORAD_CAT_ID   = 67569
ELEMENT_SET_NO = 999
REV_AT_EPOCH   = 303
BSTAR          = .44856E-3
MEAN_MOTION_DOT = .86441E-3
MEAN_MOTION_DDOT = 0

CCSDS_OMM_VERS = 2.0
CREATION_DATE  = 
ORIGINATOR     = 

OBJECT_NAME    = STARLINK-36562
OBJECT_ID      = 2026-016K
CENTER_NAME    = EARTH
REF_FRAME      = TEME
TIME_SYSTEM    = UTC
MEAN_ELEMENT_THEORY = SGP/SGP4

EPOCH          = 2026-02-06T12:00:01.999296
MEAN_MOTION    = 15.80680674
ECCENTRICITY   = .0001124
INCLINATION    = 97.2786
RA_OF_ASC_NODE = 96.3594
ARG_OF_PERICENTER = 70.9429
MEAN_ANOMALY   = 76.5225

EPHEMERIS_TYPE = 0
CLASSIFICATION_TYPE = U
NORAD_CAT_ID   = 67570
ELEMENT_SET_NO = 999
REV_AT_EPOCH   = 303
BSTAR          = .15002E-2
MEAN_MOTION_DOT = .29534E-2
MEAN_MOTION_DDOT = 0

CCSDS_OMM_VERS = 2.0
CREATION_DATE  = 
ORIGINATOR     = 

OBJECT_NAME    = STARLINK-36578
OBJECT_ID      = 2026-016L
CENTER_NAME    = EARTH
REF_FRAME      = TEME
TIME_SYSTEM    = UTC
MEAN_ELEMENT_THEORY = SGP/SGP4

EPOCH          = 2026-02-06T12:00:01.999296
MEAN_MOTION    = 15.80789409
ECCENTRICITY   = .0000816
INCLINATION    = 97.2788
RA_OF_ASC_NODE = 96.3606
ARG_OF_PERICENTER = 97.9354
MEAN_ANOMALY   = 55.4373

EPHEMERIS_TYPE = 0
CLASSIFICATION_TYPE = U
NORAD_CAT_ID   = 67571
ELEMENT_SET_NO = 999
REV_AT_EPOCH   = 301
BSTAR          = .3263E-3
MEAN_MOTION_DOT = .62734E-3
MEAN_MOTION_DDOT = 0

CCSDS_OMM_VERS = 2.0
CREATION_DATE  = 
ORIGINATOR     = 

OBJECT_NAME    = STARLINK-36350
OBJECT_ID      = 2026-016M
CENTER_NAME    = EARTH
REF_FRAME      = TEME
TIME_SYSTEM    = UTC
MEAN_ELEMENT_THEORY = SGP/SGP4

EPOCH          = 2026-02-06T12:00:01.999296
MEAN_MOTION    = 15.80896419
ECCENTRICITY   = .0000874
INCLINATION    = 97.2792
RA_OF_ASC_NODE = 96.3640
ARG_OF_PERICENTER = 73.5051
MEAN_ANOMALY   = 87.2272

EPHEMERIS_TYPE = 0
CLASSIFICATION_TYPE = U
NORAD_CAT_ID   = 67572
ELEMENT_SET_NO = 999
REV_AT_EPOCH   = 292
BSTAR          = -.50787E-3
MEAN_MOTION_DOT = -.96703E-3
MEAN_MOTION_DDOT = 0

CCSDS_OMM_VERS = 2.0
CREATION_DATE  = 
ORIGINATOR     = 

OBJECT_NAME    = STARLINK-36588
OBJECT_ID      = 2026-016N
CENTER_NAME    = EARTH
REF_FRAME      = TEME
TIME_SYSTEM    = UTC
MEAN_ELEMENT_THEORY = SGP/SGP4

EPOCH          = 2026-02-06T12:00:01.999296
MEAN_MOTION    = 15.81207955
ECCENTRICITY   = .0001398
INCLINATION    = 97.2784
RA_OF_ASC_NODE = 96.3676
ARG_OF_PERICENTER = 65.9685
MEAN_ANOMALY   = 102.9648

EPHEMERIS_TYPE = 0
CLASSIFICATION_TYPE = U
NORAD_CAT_ID   = 67573
ELEMENT_SET_NO = 999
REV_AT_EPOCH   = 308
BSTAR          = -.28205E-2
MEAN_MOTION_DOT = -.518807E-2
MEAN_MOTION_DDOT = 0

CCSDS_OMM_VERS = 2.0
CREATION_DATE  = 
ORIGINATOR     = 

OBJECT_NAME    = STARLINK-36594
OBJECT_ID      = 2026-016P
CENTER_NAME    = EARTH
REF_FRAME      = TEME
TIME_SYSTEM    = UTC
MEAN_ELEMENT_THEORY = SGP/SGP4

EPOCH          = 2026-02-06T12:00:01.999296
MEAN_MOTION    = 15.81557081
ECCENTRICITY   = .0001537
INCLINATION    = 97.2776
RA_OF_ASC_NODE = 96.3682
ARG_OF_PERICENTER = 79.4492
MEAN_ANOMALY   = 94.3874

EPHEMERIS_TYPE = 0
CLASSIFICATION_TYPE = U
NORAD_CAT_ID   = 67574
ELEMENT_SET_NO = 999
REV_AT_EPOCH   = 308
BSTAR          = -.60725E-2
MEAN_MOTION_DOT = -.1065611E-1
MEAN_MOTION_DDOT = 0

CCSDS_OMM_VERS = 2.0
CREATION_DATE  = 
ORIGINATOR     = 

OBJECT_NAME    = STARLINK-36400
OBJECT_ID      = 2026-016Q
CENTER_NAME    = EARTH
REF_FRAME      = TEME
TIME_SYSTEM    = UTC
MEAN_ELEMENT_THEORY = SGP/SGP4

EPOCH          = 2026-02-06T12:00:01.999296
MEAN_MOTION    = 15.81755910
ECCENTRICITY   = .0001325
INCLINATION    = 97.2786
RA_OF_ASC_NODE = 96.3720
ARG_OF_PERICENTER = 82.5360
MEAN_ANOMALY   = 96.7557

EPHEMERIS_TYPE = 0
CLASSIFICATION_TYPE = U
NORAD_CAT_ID   = 67575
ELEMENT_SET_NO = 999
REV_AT_EPOCH   = 297
BSTAR          = -.63579E-2
MEAN_MOTION_DOT = -.1139174E-1
MEAN_MOTION_DDOT = 0

CCSDS_OMM_VERS = 2.0
CREATION_DATE  = 
ORIGINATOR     = 

OBJECT_NAME    = STARLINK-36591
OBJECT_ID      = 2026-016R
CENTER_NAME    = EARTH
REF_FRAME      = TEME
TIME_SYSTEM    = UTC
MEAN_ELEMENT_THEORY = SGP/SGP4

EPOCH          = 2026-02-06T12:00:01.999296
MEAN_MOTION    = 15.82083943
ECCENTRICITY   = .0001671
INCLINATION    = 97.2778
RA_OF_ASC_NODE = 96.3726
ARG_OF_PERICENTER = 86.3879
MEAN_ANOMALY   = 98.5323

EPHEMERIS_TYPE = 0
CLASSIFICATION_TYPE = U
NORAD_CAT_ID   = 67576
ELEMENT_SET_NO = 999
REV_AT_EPOCH   = 303
BSTAR          = -.81361E-2
MEAN_MOTION_DOT = -.1464703E-1
MEAN_MOTION_DDOT = 0

CCSDS_OMM_VERS = 2.0
CREATION_DATE  = 
ORIGINATOR     = 

OBJECT_NAME    = STARLINK-36590
OBJECT_ID      = 2026-016S
CENTER_NAME    = EARTH
REF_FRAME      = TEME
TIME_SYSTEM    = UTC
MEAN_ELEMENT_THEORY = SGP/SGP4

EPOCH          = 2026-02-06T12:00:01.999296
MEAN_MOTION    = 15.82356493
ECCENTRICITY   = .0001651
INCLINATION    = 97.2775
RA_OF_ASC_NODE = 96.3745
ARG_OF_PERICENTER = 83.2604
MEAN_ANOMALY   = 106.7955

EPHEMERIS_TYPE = 0
CLASSIFICATION_TYPE = U
NORAD_CAT_ID   = 67577
ELEMENT_SET_NO = 999
REV_AT_EPOCH   = 303
BSTAR          = -.91613E-2
MEAN_MOTION_DOT = -.1643978E-1
MEAN_MOTION_DDOT = 0

CCSDS_OMM_VERS = 2.0
CREATION_DATE  = 
ORIGINATOR     = 

OBJECT_NAME    = STARLINK-36613
OBJECT_ID      = 2026-016T
CENTER_NAME    = EARTH
REF_FRAME      = TEME
TIME_SYSTEM    = UTC
MEAN_ELEMENT_THEORY = SGP/SGP4

EPOCH          = 2026-02-06T12:00:01.999296
MEAN_MOTION    = 15.82605929
ECCENTRICITY   = .0001779
INCLINATION    = 97.2773
RA_OF_ASC_NODE = 96.3781
ARG_OF_PERICENTER = 80.7861
MEAN_ANOMALY   = 115.4208

EPHEMERIS_TYPE = 0
CLASSIFICATION_TYPE = U
NORAD_CAT_ID   = 67578
ELEMENT_SET_NO = 999
REV_AT_EPOCH   = 303
BSTAR          = -.90447E-2
MEAN_MOTION_DOT = -.1642581E-1
MEAN_MOTION_DDOT = 0

CCSDS_OMM_VERS = 2.0
CREATION_DATE  = 
ORIGINATOR     = 

OBJECT_NAME    = STARLINK-36571
OBJECT_ID      = 2026-016U
CENTER_NAME    = EARTH
REF_FRAME      = TEME
TIME_SYSTEM    = UTC
MEAN_ELEMENT_THEORY = SGP/SGP4

EPOCH          = 2026-02-06T06:00:02.000160
MEAN_MOTION    = 15.83956133
ECCENTRICITY   = .00015995
INCLINATION    = 97.2774
RA_OF_ASC_NODE = 96.1164
ARG_OF_PERICENTER = 75.9950
MEAN_ANOMALY   = 143.9631

EPHEMERIS_TYPE = 0
CLASSIFICATION_TYPE = U
NORAD_CAT_ID   = 67579
ELEMENT_SET_NO = 999
REV_AT_EPOCH   = 299
BSTAR          = -.94404499E-2
MEAN_MOTION_DOT = -.1801076E-1
MEAN_MOTION_DDOT = 0

CCSDS_OMM_VERS = 2.0
CREATION_DATE  = 
ORIGINATOR     = 

OBJECT_NAME    = STARLINK-36612
OBJECT_ID      = 2026-016V
CENTER_NAME    = EARTH
REF_FRAME      = TEME
TIME_SYSTEM    = UTC
MEAN_ELEMENT_THEORY = SGP/SGP4

EPOCH          = 2026-02-06T06:00:02.000160
MEAN_MOTION    = 15.84169877
ECCENTRICITY   = .00016093
INCLINATION    = 97.2773
RA_OF_ASC_NODE = 96.1183
ARG_OF_PERICENTER = 66.7685
MEAN_ANOMALY   = 158.8025

EPHEMERIS_TYPE = 0
CLASSIFICATION_TYPE = U
NORAD_CAT_ID   = 67580
ELEMENT_SET_NO = 999
REV_AT_EPOCH   = 299
BSTAR          = -.93085735E-2
MEAN_MOTION_DOT = -.1795221E-1
MEAN_MOTION_DDOT = 0

CCSDS_OMM_VERS = 2.0
CREATION_DATE  = 
ORIGINATOR     = 

OBJECT_NAME    = STARLINK-36632
OBJECT_ID      = 2026-016W
CENTER_NAME    = EARTH
REF_FRAME      = TEME
TIME_SYSTEM    = UTC
MEAN_ELEMENT_THEORY = SGP/SGP4

EPOCH          = 2026-02-06T06:00:02.000160
MEAN_MOTION    = 15.84803453
ECCENTRICITY   = .00013903
INCLINATION    = 97.2768
RA_OF_ASC_NODE = 96.1253
ARG_OF_PERICENTER = 81.2572
MEAN_ANOMALY   = 160.1409

EPHEMERIS_TYPE = 0
CLASSIFICATION_TYPE = U
NORAD_CAT_ID   = 67581
ELEMENT_SET_NO = 999
REV_AT_EPOCH   = 299
BSTAR          = -.90281022E-2
MEAN_MOTION_DOT = -.1794856E-1
MEAN_MOTION_DDOT = 0

CCSDS_OMM_VERS = 2.0
CREATION_DATE  = 
ORIGINATOR     = 

OBJECT_NAME    = STARLINK-36609
OBJECT_ID      = 2026-016X
CENTER_NAME    = EARTH
REF_FRAME      = TEME
TIME_SYSTEM    = UTC
MEAN_ELEMENT_THEORY = SGP/SGP4

EPOCH          = 2026-02-06T06:00:02.000160
MEAN_MOTION    = 15.85007062
ECCENTRICITY   = .00015375
INCLINATION    = 97.2766
RA_OF_ASC_NODE = 96.1276
ARG_OF_PERICENTER = 74.2597
MEAN_ANOMALY   = 172.5067

EPHEMERIS_TYPE = 0
CLASSIFICATION_TYPE = U
NORAD_CAT_ID   = 67582
ELEMENT_SET_NO = 999
REV_AT_EPOCH   = 299
BSTAR          = -.88643456E-2
MEAN_MOTION_DOT = -.1782067E-1
MEAN_MOTION_DDOT = 0

CCSDS_OMM_VERS = 2.0
CREATION_DATE  = 
ORIGINATOR     = 

OBJECT_NAME    = STARLINK-36577
OBJECT_ID      = 2026-016Y
CENTER_NAME    = EARTH
REF_FRAME      = TEME
TIME_SYSTEM    = UTC
MEAN_ELEMENT_THEORY = SGP/SGP4

EPOCH          = 2026-02-06T06:00:02.000160
MEAN_MOTION    = 15.84467431
ECCENTRICITY   = .00015171
INCLINATION    = 97.2764
RA_OF_ASC_NODE = 96.1210
ARG_OF_PERICENTER = 81.9402
MEAN_ANOMALY   = 151.0524

EPHEMERIS_TYPE = 0
CLASSIFICATION_TYPE = U
NORAD_CAT_ID   = 67583
ELEMENT_SET_NO = 999
REV_AT_EPOCH   = 299
BSTAR          = -.91712928E-2
MEAN_MOTION_DOT = -.1794271E-1
MEAN_MOTION_DDOT = 0

